IRIDIUM 144             
1 43249U 18030A   25079.17707009  .00000111  00000+0  32559-4 0  9998
2 43249  86.3941 120.2363 0001966  87.3995 272.7425 14.34215413365084
IRIDIUM 149             
1 43250U 18030B   25078.62526957  .00000675  00000+0  23404-3 0  9993
2 43250  86.3942 120.4395 0002056  91.8191 268.3240 14.34219872365004
IRIDIUM 157             
1 43251U 18030C   25079.48151978  .00000546  00000+0  18806-3 0  9993
2 43251  86.3943 120.1247 0002438  99.0926 261.0545 14.34220181365103
IRIDIUM 140             
1 43252U 18030D   25078.66332554  .00000497  00000+0  17047-3 0  9995
2 43252  86.3942 120.4806 0002142  89.6849 270.4592 14.34219014365040
IRIDIUM 145             
1 43253U 18030E   25078.65064422  .00000683  00000+0  23673-3 0  9990
2 43253  86.3943 120.4589 0001899  88.5615 271.5798 14.34222962364974
IRIDIUM 146             
1 43254U 18030F   25078.63161254  .00000373  00000+0  12620-3 0  9996
2 43254  86.3943 120.4810 0001863  88.2201 271.9209 14.34218532364981
IRIDIUM 148             
1 43255U 18030G   25079.50689124  .00000263  00000+0  86848-4 0  9997
2 43255  86.3942 120.1508 0002118  97.1648 262.9788 14.34218165365154
IRIDIUM 142             
1 43256U 18030H   25078.63795820  .00000669  00000+0  23195-3 0  9997
2 43256  86.3940 120.4196 0001765  93.3256 266.8142 14.34220869364980
